STARLINK-2749
1 28429C 21040B   21325.19565524 -.00007704  00000-0 -51599-3 0  3259
2 28429  53.0561   2.3423 0001900  60.5661 332.4653 15.06419110    12
